HAWK-11B                
1 62379U 24247C   26068.44730104  .00009093  00000+0  32842-3 0  9993
2 62379  45.0161 115.7610 0004690 333.0326  27.0314 15.28847070 67738
STARLINK-34672          
1 65894U 25224N   26068.10850663  .00024947  00000+0  85145-3 0  9999
2 65894  53.1616  14.1636 0000531  91.8621 268.2441 15.30204692 24783
